H1 CPF 01  gfz 2021 08 20 12  7322 terrasarx 
H2 0702601  6201 31698    2021 08 20 12 59 42 2021 08 25 00 00 42   120 1 1  0 0 0
H9
10 0 59450  82062.000000  0    2148916.713  -4464097.482  -4794167.949
10 0 59450  82182.000000  0    2207699.963  -5075778.545  -4109349.024
10 0 59450  82302.000000  0    2218132.075  -5599747.596  -3352519.398
10 0 59450  82422.000000  0    2181613.967  -6025949.503  -2536879.134
10 0 59450  82542.000000  0    2100528.263  -6346054.391  -1676692.428
10 0 59450  82662.000000  0    1978168.849  -6553631.378   -787038.655
10 0 59450  82782.000000  0    1818653.153  -6644288.174    116455.703
10 0 59450  82902.000000  0    1626814.484  -6615768.471   1017898.411
10 0 59450  83022.000000  0    1408080.310  -6468010.433   1901418.198
10 0 59450  83142.000000  0    1168337.663  -6203158.612   2751455.372
10 0 59450  83262.000000  0     913789.667  -5825530.162   3553043.402
10 0 59450  83382.000000  0     650806.918  -5341538.884   4292078.307
10 0 59450  83502.000000  0     385778.125  -4759578.396   4955569.842
10 0 59450  83622.000000  0     124962.560  -4089867.170   5531870.752
10 0 59450  83742.000000  0    -125650.510  -3344258.952   6010879.310
10 0 59450  83862.000000  0    -360473.020  -2536023.134   6384211.449
10 0 59450  83982.000000  0    -574437.869  -1679602.626   6645339.800
10 0 59450  84102.000000  0    -763104.321   -790353.533   6789701.956
10 0 59450  84222.000000  0    -922747.678    115731.656   6814776.606
10 0 59450  84342.000000  0   -1050431.889   1022312.213   6720125.009
10 0 59450  84462.000000  0   -1144063.018   1912993.374   6507397.915
10 0 59450  84582.000000  0   -1202423.351   2771622.121   6180308.628
10 0 59450  84702.000000  0   -1225186.232   3582580.502   5744572.381
10 0 59450  84822.000000  0   -1212910.787   4331072.035   5207811.821
10 0 59450  84942.000000  0   -1167016.314   5003396.267   4579430.354
10 0 59450  85062.000000  0   -1089737.914   5587207.526   3870452.447
10 0 59450  85182.000000  0    -984062.544   6071749.385   3093333.324
10 0 59450  85302.000000  0    -853649.802   6448063.839   2261743.135
10 0 59450  85422.000000  0    -702735.009   6709168.088   1390322.422
10 0 59450  85542.000000  0    -536018.131   6850191.048    494418.880
10 0 59450  85662.000000  0    -358542.126   6868469.453   -410189.707
10 0 59450  85782.000000  0    -175563.449   6763600.723  -1307582.616
10 0 59450  85902.000000  0       7581.715   6537447.765  -2181986.907
10 0 59450  86022.000000  0     185610.986   6194097.071  -3018061.236
10 0 59450  86142.000000  0     353426.608   5739775.160  -3801168.668
10 0 59450  86262.000000  0     506241.082   5182724.107  -4517634.116
10 0 59450  86382.000000  0     639694.194   4533039.422  -5154980.679
99
